P/2024 J1 (PANSTARRS),e,13.1637,321.9366,200.3908,3.809172,0.1325739,0.30782941,127.7195,07/02.0/2026,2000,g 14.5,4.0
# From MPC191588
C/2024 J2 (Wierzchos),e,79.3019,189.0682,143.1398,145.8975,0.0005593,0.98758714,0.0000,03/19.7291/2025,2000,g 11.5,4.0
# From MPEC 2026-M30
C/2024 J3 (ATLAS),h,11/25.4228/2026,75.6398,285.9603,74.0904,1.000056,3.865476,2000,5.0,4.0
# From MPEC 2026-M30
C/2024 J4 (Lemmon),e,117.5162,19.3142,127.8557,4415,0.0000034,0.99871015,0.0000,04/25.9081/2025,2000,g  8.0,4.0
# From MPC194190
P/2024 K1 (PANSTARRS),e,1.8204,251.5869,349.3758,6.834378,0.0551640,0.49076845,44.0491,07/02.0/2026,2000,g 13.5,4.0
# From MPC194190
C/2024 L1 (PANSTARRS),e,99.1498,45.1347,171.7767,11.46034,0.0254043,0.53334892,11.0521,07/02.0/2026,2000,g 10.0,4.0
# From MPEC 2026-L50
C/2024 L2 (PANSTARRS),h,06/16.7794/2025,139.5811,266.1801,345.8511,1.004851,8.325852,2000,7.5,3.2
# From MPC194190
C/2024 L3 (PANSTARRS),h,11/23.3870/2023,111.5922,295.0041,59.0413,1.003180,6.857713,2000,9.5,4.0
# From MPEC 2026-GD5
C/2024 L5 (ATLAS),h,03/11.2662/2025,166.5941,139.1801,290.7272,1.039203,3.439483,2000,9.0,4.0
# From MPC194190
C/2024 M1 (ATLAS),e,73.7079,76.2234,345.6016,29.75790,0.0060716,0.94273235,3.5765,07/02.0/2026,2000,g 12.0,4.0
# From MPC194190
C/2024 N1 (PANSTARRS),h,10/18.9710/2025,88.7813,323.0259,91.2706,1.000903,4.398736,2000,10.5,4.0
# From MPEC 2026-M30
C/2024 N3 (Sarneczky),h,04/11.6348/2025,88.7250,82.6145,86.9029,1.002278,5.014831,2000,8.0,4.0
# From MPC194190
C/2024 N4 (Sarneczky),h,01/10.4289/2025,49.7957,339.6444,116.7619,1.003220,5.399666,2000,7.5,4.0
# From MPC194190
C/2024 O1 (PANSTARRS),e,59.0824,303.3466,349.8209,31803,0.0000002,0.99979238,0.0000,01/27.7211/2023,2000,g  8.5,4.0
# From MPC194190
P/2024 O2 (PANSTARRS),e,28.9814,6.8120,310.7298,7.372986,0.0492310,0.49854509,39.5471,07/02.0/2026,2000,g 12.0,4.0
# From MPC194191
C/2024 PN7 (PANSTARRS),e,101.2030,358.5840,74.2651,66.48391,0.0018181,0.97706623,0.0000,12/06.3350/2024,2000,g 15.2,4.0
# From MPC194191
C/2024 Q3 (PANSTARRS),h,03/05.1512/2025,121.3857,337.2868,70.1396,1.001198,2.092380,2000,15.0,4.0
# From MPC194191
C/2024 Q4 (PANSTARRS),e,3.3176,324.2643,133.0402,475.2932,0.0000951,0.98859566,0.0000,11/11.5764/2024,2000,g 10.0,4.0
# From MPC194191
P/2024 R2 (PANSTARRS),e,15.1244,192.9652,203.7589,3.146046,0.1766267,0.26881574,112.8389,07/02.0/2026,2000,g 15.5,4.0
# From MPC194191
P/2024 R3 (PANSTARRS),e,14.7016,32.8368,309.7817,3.201287,0.1720748,0.26908543,134.6979,07/02.0/2026,2000,g 15.0,4.0
# From MPEC 2026-M30
C/2024 R4 (PANSTARRS),h,10/26.8173/2027,95.3793,345.9467,109.0143,1.002212,4.408425,2000,6.5,4.0
# From MPC194192
P/2024 S2 (Rankin),e,7.5251,8.3173,49.1865,5.010478,0.0878790,0.59142581,57.4572,07/02.0/2026,2000,g 15.0,4.0
# From MPC194192
P/2024 T1 (Rankin),e,17.6200,279.7117,164.8849,6.598123,0.0581532,0.65322235,37.1995,07/02.0/2026,2000,g 14.5,4.0
# From MPC194192
P/2024 T2 (Rankin),e,12.9288,113.0600,343.8603,6.173002,0.0642628,0.68032496,36.6738,07/02.0/2026,2000,g 16.0,4.0
# From MPC194192
C/2024 T3 (PANSTARRS),e,53.4004,74.7970,336.9046,87.53323,0.0012035,0.95754440,0.5702,07/02.0/2026,2000,g 11.5,4.0
# From MPC194192
C/2024 T5 (ATLAS),h,05/06.3135/2027,52.3878,100.6768,352.4803,1.002161,3.839666,2000,5.5,4.0
# From MPC194192
C/2024 U1 (PANSTARRS),e,128.7570,270.2717,188.1334,495.3406,0.0000894,0.99023252,0.0000,06/30.7411/2024,2000,g 10.0,4.0
# From MPC194192
A/2024 U2,h,01/15.6885/2026,120.6748,56.0780,29.8517,1.003462,8.179029,2000,12.1,2.0
# From MPC194192
C/2024 V1 (Borisov),e,54.6241,328.1892,168.6931,233.2920,0.0002766,0.99005902,0.0000,04/04.1386/2025,2000,g 14.8,4.0
# From MPC194192
C/2024 W1 (PANSTARRS),e,83.2041,310.7244,256.7513,45.27318,0.0032355,0.94343529,1.5201,07/02.0/2026,2000,g 15.0,4.0
# From MPC194192
A/2024 W2,h,02/27.4796/2025,116.6155,241.9426,168.0266,1.002186,3.721410,2000,15.6,2.0
# From MPEC 2026-L50
C/2024 X1 (Fazekas),e,6.4737,351.9204,124.3464,9.389794,0.0342547,0.59356179,11.4123,07/02.0/2026,2000,g 11.3,4.0
# From MPEC 2026-GD5
C/2024 X2 (ATLAS),e,109.2987,122.5200,315.5203,51.68374,0.0026526,0.92902890,0.9553,07/02.0/2026,2000,g  9.6,4.0
# From MPEC 2026-K60
P/2024 X3 (PANSTARRS),e,2.9724,113.3632,352.9971,6.997075,0.0532512,0.62616467,35.3668,07/02.0/2026,2000,g 14.6,4.0
# From MPC194193
C/2024 X4 (PANSTARRS),e,34.6415,258.9373,153.3757,10.11659,0.0306304,0.64363921,9.2693,07/02.0/2026,2000,g 12.6,4.0
# From MPC194193
C/2024 XK14 (Bok),e,109.2061,239.0949,243.4954,17.02415,0.0140316,0.87901926,5.7117,07/02.0/2026,2000,g 15.5,4.0
# From MPEC 2026-M30
C/2025 A1 (Lemmon),e,33.4036,101.3080,68.3427,29187,0.0000002,0.99981718,0.0000,03/15.0229/2027,2000,g  7.2,4.0
# From MPC194193
P/2025 A2 (PANSTARRS),e,20.7334,189.3186,278.0829,5.083319,0.0859969,0.32180891,54.5455,07/02.0/2026,2000,g 13.2,4.0
# From MPEC 2026-HH0
C/2025 A3 (Tsuchinshan),e,9.9760,322.4295,222.3700,10.20373,0.0302389,0.43234733,3.2741,07/02.0/2026,2000,g  9.0,4.0
# From MPC194193
C/2025 A4 (PANSTARRS),e,32.0204,69.9170,102.8294,11.07248,0.0267508,0.65457069,14.3005,07/02.0/2026,2000,g 12.4,4.0
# From MPEC 2026-M30
C/2025 A6 (Lemmon),e,143.6635,108.0977,132.9577,121.5701,0.0007353,0.99564177,0.0000,11/08.5339/2025,2000,g 13.2,4.0
# From MPC194194
A/2025 A7,e,133.6558,348.8631,195.5839,2547,0.0000077,0.99886787,0.0000,03/28.0530/2025,2000,g 14.9,2.0
# From MPC194194
C/2025 B1 (PANSTARRS),e,39.6648,102.8461,23.5573,13205,0.0000006,0.99973268,0.0000,06/26.8159/2025,2000,g 12.0,4.0
# From MPEC 2026-M30
C/2025 B2 (Borisov),h,09/11.9739/2026,91.7464,84.8715,78.8729,1.002452,8.238752,2000,6.2,4.0
# From MPC194194
P/2025 C1 (ATLAS),e,7.5166,9.0874,186.8364,4.197596,0.1146049,0.34581836,58.4819,07/02.0/2026,2000,g 10.8,4.0
# From MPC194194
C/2025 D1 (Groeller),h,05/22.8004/2028,84.4491,312.9034,185.9675,1.003173,14.115568,2000,1.2,4.0
# From MPEC 2026-H88
P/2025 D2 (PANSTARRS),e,5.3584,257.1832,317.9313,8.710837,0.0383367,0.14868972,322.2740,07/02.0/2026,2000,g  8.2,4.0
# From MPC194194
P/2025 D3 (PANSTARRS),e,9.6417,186.6286,294.5926,3.969033,0.1246456,0.25243519,87.9764,07/02.0/2026,2000,g 14.7,4.0
# From MPC194194
P/2025 D4 (ATLAS),e,15.9372,233.1116,332.9040,8.914296,0.0370317,0.63487947,18.6128,07/02.0/2026,2000,g 13.2,4.0
# From MPC194194
C/2025 D6 (ATLAS),e,145.8750,151.5450,285.5242,1077,0.0000279,0.99767171,0.0000,12/11.2540/2024,2000,g 13.2,4.0
# From MPEC 2026-L50
C/2025 E1 (PANSTARRS),e,69.0593,344.5893,274.4241,1794,0.0000130,0.99777158,0.0000,09/23.7072/2026,2000,g  9.7,4.0
# From MPC194195
C/2025 F2 (SWAN),h,05/01.1437/2025,90.3763,329.8197,153.8525,1.000150,0.333858,2000,11.2,4.0
# From MPEC 2026-L50
C/2025 J1 (Borisov),e,95.4314,273.9823,166.6169,1900,0.0000119,0.99811581,0.0000,06/11.7481/2026,2000,g  9.1,4.0
# From MPC191590
C/2025 K1 (ATLAS),h,10/08.4303/2025,147.8650,97.5608,271.0221,1.000228,0.334216,2000,12.2,4.0
# From MPC191590
C/2025 K1-B,h,10/08.4422/2025,147.9175,97.6427,271.3226,1.001962,0.335764,2000,14.7,4.0
# From MPC191590
C/2025 K1-C,e,147.8475,97.5327,270.9209,1358,0.0000197,0.99975431,0.0000,10/08.4290/2025,2000,g 14.0,4.0
# From MPC194195
C/2025 K1-D,h,10/08.4490/2025,147.9565,97.7062,271.5456,1.003088,0.336931,2000,14.0,4.0
# From MPC194195
C/2025 K2 (PANSTARRS),e,113.9795,113.8290,232.4639,25.26433,0.0077614,0.88664837,1.9380,07/02.0/2026,2000,g 13.7,4.0
# From MPEC 2026-M30
C/2025 K3 (PANSTARRS),h,12/14.1270/2028,104.9365,350.6532,188.6228,1.001339,3.468638,2000,6.4,4.0
# From MPC191590
C/2025 K4 (Siverd),e,38.5438,297.0815,326.9174,43.34675,0.0034536,0.94159158,1.1700,07/02.0/2026,2000,g 14.1,4.0
# From MPEC 2026-L50
C/2025 L1 (ATLAS),h,01/12.7362/2026,114.1360,208.1104,341.2539,1.001429,1.679725,2000,11.4,4.0
# From MPEC 2026-L50
C/2025 L2 (MAPS),e,86.5844,134.9868,232.6413,472.2005,0.0000961,0.99399899,0.0000,12/20.6519/2025,2000,g 11.7,4.0
# From MPEC 2026-L50
C/2025 M1 (PANSTARRS),e,64.8834,66.9567,230.3851,5411,0.0000025,0.99799783,0.0000,08/02.4565/2029,2000,g  2.9,4.0
# From MPEC 2026-M30
C/2025 M2 (PANSTARRS),h,11/23.5471/2027,173.2153,305.5343,96.7560,1.001804,2.721057,2000,13.4,4.0
# From MPEC 2026-M30
C/2025 M3 (PANSTARRS),e,137.2160,65.3542,197.0156,6633,0.0000018,0.99902437,0.0000,07/23.1988/2026,2000,g  9.0,4.0
# From MPC191591
C/2025 N2 (ATLAS),h,12/10.4368/2024,81.6640,94.4596,229.9986,1.001265,8.982532,2000,5.1,4.0
# From MPC194196
C/2025 O2 (MAPS),e,134.5469,332.3116,280.2534,3054,0.0000058,0.99925070,0.0000,05/23.7574/2025,2000,g 14.3,4.0
# From MPC194196
A/2025 O4,e,144.2422,68.6445,151.9472,185.5920,0.0003898,0.98286206,0.0000,06/10.0859/2025,2000,g 15.4,2.0
# From MPC194196
A/2025 P1,e,117.7982,342.4262,334.5176,56.73053,0.0023066,0.96165478,1.0575,07/02.0/2026,2000,g 17.1,4.0
# From MPC191591
C/2025 Q1 (ATLAS),e,66.1650,326.9401,280.2328,1373,0.0000194,0.99264591,0.0000,07/11.9470/2024,2000,g  3.8,4.0
# From MPEC 2026-M30
C/2025 Q3 (ATLAS),e,90.1855,233.1443,218.4597,775.3979,0.0000456,0.99727552,0.0000,02/25.6488/2026,2000,g 12.2,4.0
# From MPEC 2026-M30
C/2025 R1 (ATLAS),e,110.0246,60.3996,77.5538,166.8436,0.0004573,0.98816133,0.0000,11/23.3421/2025,2000,g 14.0,4.0
# From MPEC 2026-M30
C/2025 R2 (SWAN),e,4.4729,335.3161,308.3741,86.72078,0.0012204,0.99418555,0.0000,09/12.8270/2025,2000,g 12.4,4.0
# From MPEC 2026-M30
C/2025 R3 (PANSTARRS),h,04/19.8937/2026,124.7313,38.6950,162.2260,1.000355,0.498623,2000,12.2,4.0
# From MPEC 2026-K60
A/2025 S2,e,96.6426,34.4750,31.5900,63.23855,0.0019599,0.97333458,0.0000,01/02.4126/2026,2000,g 16.0,2.0
# From MPC191591
A/2025 S3,e,103.5642,36.7315,71.1298,216.4086,0.0003096,0.98962871,0.0000,06/25.0968/2026,2000,g 15.0,2.0
# From MPEC 2026-K60
C/2025 T1 (ATLAS),e,123.4350,140.4953,114.1408,3859,0.0000041,0.99971271,0.0000,12/02.3817/2025,2000,g 14.7,4.0
# From MPEC 2026-K60
P/2025 U1 (Hogan),e,23.8295,234.9090,264.0642,5.895436,0.0688542,0.29335627,6.7537,07/02.0/2026,2000,g 11.7,4.0
# From MPEC 2026-GD5
P/2025 UX109 (Ye),e,3.1815,197.9822,276.1159,3.804238,0.1328319,0.32446457,42.7477,07/02.0/2026,2000,g 13.7,4.0
# From MPC191592
